[{"OBJECT_NAME":"ONEWEB-0132","OBJECT_ID":"2020-100W","EPOCH":"2025-12-08T03:58:23.062944","MEAN_MOTION":13.12445141,"ECCENTRICITY":0.00018277,"INCLINATION":87.8946,"RA_OF_ASC_NODE":28.6263,"ARG_OF_PERICENTER":97.0622,"MEAN_ANOMALY":263.0715,"EPHEMERIS_TYPE":0,"CLASSIFICATION_TYPE":"U","NORAD_CAT_ID":47278,"ELEMENT_SET_NO":999,"REV_AT_EPOCH":23952,"BSTAR":-0.00090127589,"MEAN_MOTION_DOT":-3.12e-6,"MEAN_MOTION_DDOT":0},{"OBJECT_NAME":"ONEWEB-0133","OBJECT_ID":"2020-100X","EPOCH":"2025-12-08T04:21:32.688576","MEAN_MOTION":13.12446102,"ECCENTRICITY":0.00018904,"INCLINATION":87.894,"RA_OF_ASC_NODE":28.5851,"ARG_OF_PERICENTER":95.6516,"MEAN_ANOMALY":264.4828,"EPHEMERIS_TYPE":0,"CLASSIFICATION_TYPE":"U","NORAD_CAT_ID":47279,"ELEMENT_SET_NO":999,"REV_AT_EPOCH":23968,"BSTAR":0.00019271693,"MEAN_MOTION_DOT":8.2e-7,"MEAN_MOTION_DDOT":0},{"OBJECT_NAME":"ONEWEB-0134","OBJECT_ID":"2020-100Y","EPOCH":"2025-12-08T03:37:22.018656","MEAN_MOTION":13.12443777,"ECCENTRICITY":0.00018027,"INCLINATION":87.8943,"RA_OF_ASC_NODE":28.586,"ARG_OF_PERICENTER":89.1538,"MEAN_ANOMALY":270.9797,"EPHEMERIS_TYPE":0,"CLASSIFICATION_TYPE":"U","NORAD_CAT_ID":47280,"ELEMENT_SET_NO":999,"REV_AT_EPOCH":23965,"BSTAR":-0.0003194245,"MEAN_MOTION_DOT":-1.02e-6,"MEAN_MOTION_DDOT":0},{"OBJECT_NAME":"ONEWEB-0135","OBJECT_ID":"2020-100Z","EPOCH":"2025-12-08T04:45:06.747264","MEAN_MOTION":13.12441686,"ECCENTRICITY":0.00019445,"INCLINATION":87.8942,"RA_OF_ASC_NODE":28.6166,"ARG_OF_PERICENTER":87.0361,"MEAN_ANOMALY":273.099,"EPHEMERIS_TYPE":0,"CLASSIFICATION_TYPE":"U","NORAD_CAT_ID":47281,"ELEMENT_SET_NO":999,"REV_AT_EPOCH":23968,"BSTAR":0.0013852487,"MEAN_MOTION_DOT":5.11e-6,"MEAN_MOTION_DDOT":0},{"OBJECT_NAME":"ONEWEB-0136","OBJECT_ID":"2020-100AA","EPOCH":"2025-12-08T03:23:21.571296","MEAN_MOTION":13.12443269,"ECCENTRICITY":0.00018214,"INCLINATION":87.8945,"RA_OF_ASC_NODE":28.5972,"ARG_OF_PERICENTER":84.599,"MEAN_ANOMALY":275.5347,"EPHEMERIS_TYPE":0,"CLASSIFICATION_TYPE":"U","NORAD_CAT_ID":47282,"ELEMENT_SET_NO":999,"REV_AT_EPOCH":23960,"BSTAR":0.00059335233,"MEAN_MOTION_DOT":2.26e-6,"MEAN_MOTION_DDOT":0},{"OBJECT_NAME":"ONEWEB-0137","OBJECT_ID":"2020-100AB","EPOCH":"2025-12-08T04:12:23.664096","MEAN_MOTION":13.12445855,"ECCENTRICITY":0.00015455,"INCLINATION":87.8945,"RA_OF_ASC_NODE":28.5961,"ARG_OF_PERICENTER":100.9714,"MEAN_ANOMALY":259.1589,"EPHEMERIS_TYPE":0,"CLASSIFICATION_TYPE":"U","NORAD_CAT_ID":47283,"ELEMENT_SET_NO":999,"REV_AT_EPOCH":23951,"BSTAR":-0.00044553356,"MEAN_MOTION_DOT":-1.48e-6,"MEAN_MOTION_DDOT":0},{"OBJECT_NAME":"ONEWEB-0138","OBJECT_ID":"2020-100AC","EPOCH":"2025-12-08T03:42:02.712384","MEAN_MOTION":13.12443259,"ECCENTRICITY":0.00017405,"INCLINATION":87.8942,"RA_OF_ASC_NODE":28.6092,"ARG_OF_PERICENTER":91.7747,"MEAN_ANOMALY":268.3581,"EPHEMERIS_TYPE":0,"CLASSIFICATION_TYPE":"U","NORAD_CAT_ID":47284,"ELEMENT_SET_NO":999,"REV_AT_EPOCH":23959,"BSTAR":-0.00074636893,"MEAN_MOTION_DOT":-2.56e-6,"MEAN_MOTION_DDOT":0},{"OBJECT_NAME":"ONEWEB-0139","OBJECT_ID":"2020-100AD","EPOCH":"2025-12-08T04:38:17.768544","MEAN_MOTION":13.1244521,"ECCENTRICITY":0.00016665,"INCLINATION":87.8941,"RA_OF_ASC_NODE":28.591,"ARG_OF_PERICENTER":97.8594,"MEAN_ANOMALY":262.2724,"EPHEMERIS_TYPE":0,"CLASSIFICATION_TYPE":"U","NORAD_CAT_ID":47285,"ELEMENT_SET_NO":999,"REV_AT_EPOCH":23967,"BSTAR":0.00096324578,"MEAN_MOTION_DOT":3.59e-6,"MEAN_MOTION_DDOT":0},{"OBJECT_NAME":"ONEWEB-0140","OBJECT_ID":"2020-100AE","EPOCH":"2025-12-08T03:32:42.518112","MEAN_MOTION":13.12442441,"ECCENTRICITY":0.00017147,"INCLINATION":87.8943,"RA_OF_ASC_NODE":28.5867,"ARG_OF_PERICENTER":92.7002,"MEAN_ANOMALY":267.4322,"EPHEMERIS_TYPE":0,"CLASSIFICATION_TYPE":"U","NORAD_CAT_ID":47286,"ELEMENT_SET_NO":999,"REV_AT_EPOCH":23963,"BSTAR":-0.00035133622,"MEAN_MOTION_DOT":-1.14e-6,"MEAN_MOTION_DDOT":0},{"OBJECT_NAME":"ONEWEB-0141","OBJECT_ID":"2020-100AF","EPOCH":"2025-12-08T04:37:54.122592","MEAN_MOTION":13.12445303,"ECCENTRICITY":0.00014565,"INCLINATION":87.8941,"RA_OF_ASC_NODE":28.5871,"ARG_OF_PERICENTER":105.2602,"MEAN_ANOMALY":254.8688,"EPHEMERIS_TYPE":0,"CLASSIFICATION_TYPE":"U","NORAD_CAT_ID":47287,"ELEMENT_SET_NO":999,"REV_AT_EPOCH":23962,"BSTAR":0.00084034703,"MEAN_MOTION_DOT":3.15e-6,"MEAN_MOTION_DDOT":0},{"OBJECT_NAME":"ONEWEB-0142","OBJECT_ID":"2020-100AG","EPOCH":"2025-12-08T04:21:56.755296","MEAN_MOTION":13.12439987,"ECCENTRICITY":0.00013578,"INCLINATION":87.8943,"RA_OF_ASC_NODE":28.6121,"ARG_OF_PERICENTER":98.6808,"MEAN_ANOMALY":261.4475,"EPHEMERIS_TYPE":0,"CLASSIFICATION_TYPE":"U","NORAD_CAT_ID":47288,"ELEMENT_SET_NO":999,"REV_AT_EPOCH":23961,"BSTAR":-0.0017157283,"MEAN_MOTION_DOT":-6.04e-6,"MEAN_MOTION_DDOT":0},{"OBJECT_NAME":"ONEWEB-0143","OBJECT_ID":"2020-100AH","EPOCH":"2025-12-08T04:35:45.552480","MEAN_MOTION":13.12443463,"ECCENTRICITY":0.00017617,"INCLINATION":87.8941,"RA_OF_ASC_NODE":28.606,"ARG_OF_PERICENTER":99.6549,"MEAN_ANOMALY":260.4779,"EPHEMERIS_TYPE":0,"CLASSIFICATION_TYPE":"U","NORAD_CAT_ID":47289,"ELEMENT_SET_NO":999,"REV_AT_EPOCH":23959,"BSTAR":0.00097145776,"MEAN_MOTION_DOT":3.62e-6,"MEAN_MOTION_DDOT":0},{"OBJECT_NAME":"ONEWEB-0144","OBJECT_ID":"2020-100AJ","EPOCH":"2025-12-08T03:56:04.082496","MEAN_MOTION":13.12442916,"ECCENTRICITY":0.00015526,"INCLINATION":87.894,"RA_OF_ASC_NODE":28.5804,"ARG_OF_PERICENTER":87.3437,"MEAN_ANOMALY":272.7869,"EPHEMERIS_TYPE":0,"CLASSIFICATION_TYPE":"U","NORAD_CAT_ID":47290,"ELEMENT_SET_NO":999,"REV_AT_EPOCH":23951,"BSTAR":-0.00070971514,"MEAN_MOTION_DOT":-2.43e-6,"MEAN_MOTION_DDOT":0},{"OBJECT_NAME":"ONEWEB-0145","OBJECT_ID":"2020-100AK","EPOCH":"2025-12-08T05:03:48.303936","MEAN_MOTION":13.12443272,"ECCENTRICITY":0.0001705,"INCLINATION":87.8944,"RA_OF_ASC_NODE":28.6095,"ARG_OF_PERICENTER":96.1485,"MEAN_ANOMALY":263.9838,"EPHEMERIS_TYPE":0,"CLASSIFICATION_TYPE":"U","NORAD_CAT_ID":47291,"ELEMENT_SET_NO":999,"REV_AT_EPOCH":23971,"BSTAR":0.0013245501,"MEAN_MOTION_DOT":4.89e-6,"MEAN_MOTION_DDOT":0},{"OBJECT_NAME":"ONEWEB-0146","OBJECT_ID":"2020-100AL","EPOCH":"2025-12-08T03:09:21.044448","MEAN_MOTION":13.12443886,"ECCENTRICITY":0.00020815,"INCLINATION":87.8939,"RA_OF_ASC_NODE":28.6116,"ARG_OF_PERICENTER":101.9762,"MEAN_ANOMALY":258.16,"EPHEMERIS_TYPE":0,"CLASSIFICATION_TYPE":"U","NORAD_CAT_ID":47292,"ELEMENT_SET_NO":999,"REV_AT_EPOCH":23961,"BSTAR":0.0012262022,"MEAN_MOTION_DOT":4.54e-6,"MEAN_MOTION_DDOT":0},{"OBJECT_NAME":"ONEWEB-0147","OBJECT_ID":"2020-100AM","EPOCH":"2025-12-08T04:10:03.655488","MEAN_MOTION":13.12445097,"ECCENTRICITY":0.00018662,"INCLINATION":87.8948,"RA_OF_ASC_NODE":28.5815,"ARG_OF_PERICENTER":89.0406,"MEAN_ANOMALY":271.0937,"EPHEMERIS_TYPE":0,"CLASSIFICATION_TYPE":"U","NORAD_CAT_ID":47293,"ELEMENT_SET_NO":999,"REV_AT_EPOCH":23951,"BSTAR":-0.00037043497,"MEAN_MOTION_DOT":-1.21e-6,"MEAN_MOTION_DDOT":0},{"OBJECT_NAME":"ONEWEB-0115","OBJECT_ID":"2021-025A","EPOCH":"2025-12-08T06:35:31.289280","MEAN_MOTION":13.13471159,"ECCENTRICITY":0.00017776,"INCLINATION":87.8987,"RA_OF_ASC_NODE":358.1608,"ARG_OF_PERICENTER":93.0824,"MEAN_ANOMALY":267.0508,"EPHEMERIS_TYPE":0,"CLASSIFICATION_TYPE":"U","NORAD_CAT_ID":48042,"ELEMENT_SET_NO":999,"REV_AT_EPOCH":22853,"BSTAR":0.00085654786,"MEAN_MOTION_DOT":3.26e-6,"MEAN_MOTION_DDOT":0},{"OBJECT_NAME":"ONEWEB-0152","OBJECT_ID":"2021-025B","EPOCH":"2025-12-08T06:55:01.490016","MEAN_MOTION":13.13470194,"ECCENTRICITY":0.00018655,"INCLINATION":87.8977,"RA_OF_ASC_NODE":358.1654,"ARG_OF_PERICENTER":93.6811,"MEAN_ANOMALY":266.4532,"EPHEMERIS_TYPE":0,"CLASSIFICATION_TYPE":"U","NORAD_CAT_ID":48043,"ELEMENT_SET_NO":999,"REV_AT_EPOCH":22849,"BSTAR":0.00014747578,"MEAN_MOTION_DOT":6.7e-7,"MEAN_MOTION_DDOT":0},{"OBJECT_NAME":"ONEWEB-0153","OBJECT_ID":"2021-025C","EPOCH":"2025-12-08T02:43:56.835264","MEAN_MOTION":13.13471003,"ECCENTRICITY":0.00016977,"INCLINATION":87.8982,"RA_OF_ASC_NODE":358.2052,"ARG_OF_PERICENTER":92.9476,"MEAN_ANOMALY":267.1848,"EPHEMERIS_TYPE":0,"CLASSIFICATION_TYPE":"U","NORAD_CAT_ID":48044,"ELEMENT_SET_NO":999,"REV_AT_EPOCH":22846,"BSTAR":0.0010969225,"MEAN_MOTION_DOT":4.13e-6,"MEAN_MOTION_DDOT":0},{"OBJECT_NAME":"ONEWEB-0154","OBJECT_ID":"2021-025D","EPOCH":"2025-12-08T08:08:09.211200","MEAN_MOTION":13.13472036,"ECCENTRICITY":0.00018005,"INCLINATION":87.8981,"RA_OF_ASC_NODE":358.1569,"ARG_OF_PERICENTER":90.1046,"MEAN_ANOMALY":270.0289,"EPHEMERIS_TYPE":0,"CLASSIFICATION_TYPE":"U","NORAD_CAT_ID":48045,"ELEMENT_SET_NO":999,"REV_AT_EPOCH":22845,"BSTAR":0.00088020427,"MEAN_MOTION_DOT":3.34e-6,"MEAN_MOTION_DDOT":0},{"OBJECT_NAME":"ONEWEB-0116","OBJECT_ID":"2021-025E","EPOCH":"2025-12-08T07:14:30.745536","MEAN_MOTION":13.13471242,"ECCENTRICITY":0.00018779,"INCLINATION":87.8984,"RA_OF_ASC_NODE":358.1484,"ARG_OF_PERICENTER":93.5035,"MEAN_ANOMALY":266.6309,"EPHEMERIS_TYPE":0,"CLASSIFICATION_TYPE":"U","NORAD_CAT_ID":48046,"ELEMENT_SET_NO":999,"REV_AT_EPOCH":22859,"BSTAR":-0.00074468319,"MEAN_MOTION_DOT":-2.59e-6,"MEAN_MOTION_DDOT":0},{"OBJECT_NAME":"ONEWEB-0150","OBJECT_ID":"2021-025F","EPOCH":"2025-12-08T06:40:23.203776","MEAN_MOTION":13.13470687,"ECCENTRICITY":0.00016224,"INCLINATION":87.8987,"RA_OF_ASC_NODE":358.1489,"ARG_OF_PERICENTER":97.0611,"MEAN_ANOMALY":263.0703,"EPHEMERIS_TYPE":0,"CLASSIFICATION_TYPE":"U","NORAD_CAT_ID":48047,"ELEMENT_SET_NO":999,"REV_AT_EPOCH":22848,"BSTAR":0.00075312981,"MEAN_MOTION_DOT":2.88e-6,"MEAN_MOTION_DDOT":0},{"OBJECT_NAME":"ONEWEB-0107","OBJECT_ID":"2021-025G","EPOCH":"2025-12-08T06:42:50.224608","MEAN_MOTION":13.13470429,"ECCENTRICITY":0.00015242,"INCLINATION":87.8986,"RA_OF_ASC_NODE":358.1452,"ARG_OF_PERICENTER":87.1724,"MEAN_ANOMALY":272.9579,"EPHEMERIS_TYPE":0,"CLASSIFICATION_TYPE":"U","NORAD_CAT_ID":48048,"ELEMENT_SET_NO":999,"REV_AT_EPOCH":22846,"BSTAR":0.00065146508,"MEAN_MOTION_DOT":2.51e-6,"MEAN_MOTION_DDOT":0}]
